OBJECT_NAME,OBJECT_ID,EPOCH,MEAN_MOTION,ECCENTRICITY,INCLINATION,RA_OF_ASC_NODE,ARG_OF_PERICENTER,MEAN_ANOMALY,EPHEMERIS_TYPE,CLASSIFICATION_TYPE,NORAD_CAT_ID,ELEMENT_SET_NO,REV_AT_EPOCH,BSTAR,MEAN_MOTION_DOT,MEAN_MOTION_DDOT
STARLINK-34245,2025-113Z,2026-06-05T20:48:07.669152,15.34432149,.0001467,53.1604,40.2695,97.1648,262.9521,0,U,64193,999,5854,.14483884E-2,.4893E-3,0
STARLINK-34237,2025-113AA,2026-06-05T20:58:28.017696,15.31740886,.00016342,53.1605,41.0182,97.2015,262.9172,0,U,64194,999,5853,.14622809E-2,.45346E-3,0
STARLINK-33857,2025-113AB,2026-06-05T23:15:21.516192,15.30206203,.00014183,53.1584,40.9035,116.8937,243.2209,0,U,64195,999,5854,.77484518E-3,.22664E-3,0
STARLINK-34173,2025-113AC,2026-06-05T19:44:40.665696,15.31711800,.00012534,53.1607,41.4155,70.0314,290.0822,0,U,64196,999,5856,.13425803E-2,.41544E-3,0
SHIJIAN-26 (SJ-26),2025-115A,2026-06-06T03:53:37.250880,15.23570674,.00197057,97.4552,235.7642,35.8335,324.4219,0,U,64199,999,5676,.30666674E-3,.7302E-4,0
NAVSTAR 84 (USA 545),2025-116A,2026-06-04T08:47:30.944832,2.00577081,.00084526,55.2259,31.6468,337.8257,196.1658,0,U,64202,999,761,0,-.73E-6,0
STARLINK-33966,2025-117A,2026-06-05T20:16:07.571712,15.30237292,.00011065,53.1596,350.0641,77.9628,282.1497,0,U,64203,999,5805,.84549709E-3,.24794E-3,0
STARLINK-34331,2025-117B,2026-06-05T20:15:00.672192,15.34429618,.00008198,53.1605,350.0559,84.5182,275.5914,0,U,64204,999,5802,.12385566E-2,.41743E-3,0
STARLINK-34251,2025-117C,2026-06-05T06:01:45.573024,15.34407408,.0001168,53.1608,352.7554,105.2175,254.8956,0,U,64205,999,5793,.22268E-3,.7156E-4,0
STARLINK-34311,2025-117D,2026-06-06T00:00:02.999808,15.34358934,.00008585,53.1609,349.4873,84.5119,337.9481,0,U,64206,999,567,.21096516E-2,.71489E-3,0
STARLINK-34324,2025-117E,2026-06-05T20:11:33.458208,15.30230511,.00004542,53.1603,350.0418,63.1690,296.9358,0,U,64207,999,5699,.15068368E-2,.44579E-3,0
STARLINK-34327,2025-117F,2026-06-05T19:50:18.106080,15.30202133,.000093,53.1588,349.9511,58.4374,301.6717,0,U,64208,999,5698,.14208E-2,.41962E-3,0
STARLINK-33944,2025-117G,2026-06-05T02:49:23.846304,15.30214844,.00010237,53.1595,353.3719,63.7285,296.3821,0,U,64209,999,5794,.10997742E-2,.3237E-3,0
STARLINK-34310,2025-117H,2026-06-05T19:53:20.512032,15.30219688,.0000981,53.1599,349.9665,106.9990,253.1118,0,U,64210,999,5802,.10803E-2,.31792E-3,0
STARLINK-34258,2025-117J,2026-06-05T21:10:41.398176,15.30209437,.0001878,53.1590,349.5853,37.4904,322.6227,0,U,64211,999,5803,.12134028E-2,.35762E-3,0
STARLINK-34284,2025-117K,2026-06-06T03:35:59.487648,15.30221139,.00014735,53.1583,348.4072,154.3838,205.7236,0,U,64212,999,5807,.95485229E-3,.28046E-3,0
STARLINK-34332,2025-117L,2026-06-05T20:08:57.002496,15.34405883,.00008452,53.1604,350.0274,90.6139,269.4961,0,U,64213,999,5805,.97273132E-3,.32638E-3,0
STARLINK-34283,2025-117M,2026-06-05T20:14:18.585024,15.34413621,.00011017,53.1600,348.6371,95.4385,264.6744,0,U,64214,999,5804,.12447451E-2,.41933E-3,0
STARLINK-34349,2025-117N,2026-06-05T20:11:59.754912,15.34365794,.0000921,53.1602,350.0392,107.7035,252.4069,0,U,64215,999,5802,.10462143E-2,.35099E-3,0
STARLINK-34296,2025-117P,2026-06-05T06:02:03.545088,15.30204453,.0000774,53.1594,352.7562,80.5193,279.5895,0,U,64216,999,5796,.60912E-3,.17727E-3,0
STARLINK-34320,2025-117Q,2026-06-06T00:00:02.999808,15.34358497,.00009005,53.1604,349.3498,80.3064,51.9115,0,U,64217,999,582,.21089976E-2,.71466E-3,0
STARLINK-34300,2025-117R,2026-06-05T19:54:53.377344,15.30205059,.000073,53.1591,349.9703,82.4409,277.6674,0,U,64218,999,5802,.11061E-2,.32548E-3,0
STARLINK-34323,2025-117S,2026-06-05T20:02:29.227200,15.30177959,.00014075,53.1582,350.0010,73.7763,286.3392,0,U,64219,999,5805,.11379134E-2,.33472E-3,0
STARLINK-34328,2025-117T,2026-06-05T20:23:43.657440,15.30213875,.00009977,53.1603,350.0900,86.2899,273.8216,0,U,64220,999,5802,.13441608E-2,.39681E-3,0
STARLINK-34326,2025-117U,2026-06-05T20:26:46.366656,15.30210291,.00009294,53.1612,350.1040,78.3329,281.7776,0,U,64221,999,5805,.11981793E-2,.35307E-3,0
STARLINK-34318,2025-117V,2026-06-05T20:02:52.993248,15.34407584,.00007798,53.1599,350.0005,55.6004,304.5072,0,U,64222,999,5802,.99871043E-3,.33526E-3,0
STARLINK-34337,2025-117W,2026-06-05T06:19:56.119008,15.34404326,.0000884,53.1603,352.8359,61.4249,298.6842,0,U,64223,999,5793,.98693E-3,.33121E-3,0
STARLINK-34304,2025-117X,2026-06-05T06:06:37.172160,15.30192430,.0001531,53.1599,352.7740,86.5773,273.5403,0,U,64224,999,5796,.84918E-4,.2156E-4,0
STARLINK-34289,2025-117Y,2026-06-06T06:00:02.000160,15.33574720,.00012572,53.1596,348.1935,70.5734,353.8445,0,U,64225,999,581,-.10331451E-2,-.34224E-3,0
STARLINK-34347,2025-117Z,2026-06-05T03:27:18.351360,15.30401851,.00031696,53.1594,353.4884,147.8773,212.2421,0,U,64226,999,5791,.44985152E-2,.136194E-2,0
