STARLINK-34245          
1 64193U 25113Z   26156.86675543  .00048930  00000+0  14484-2 0  9995
2 64193  53.1604  40.2695 0001467  97.1648 262.9521 15.34432149 58548
STARLINK-34237          
1 64194U 25113AA  26156.87393539  .00045346  00000+0  14623-2 0  9992
2 64194  53.1605  41.0182 0001634  97.2015 262.9172 15.31740886 58533
STARLINK-33857          
1 64195U 25113AB  26156.96899903  .00022664  00000+0  77485-3 0  9993
2 64195  53.1584  40.9035 0001418 116.8937 243.2209 15.30206203 58549
STARLINK-34173          
1 64196U 25113AC  26156.82269289  .00041544  00000+0  13426-2 0  9999
2 64196  53.1607  41.4155 0001253  70.0314 290.0822 15.31711800 58560
SHIJIAN-26 (SJ-26)      
1 64199U 25115A   26157.16223670  .00007302  00000+0  30667-3 0  9997
2 64199  97.4552 235.7642 0019705  35.8335 324.4219 15.23570674 56760
NAVSTAR 84 (USA 545)    
1 64202U 25116A   26155.36633038 -.00000073  00000+0  00000+0 0  9999
2 64202  55.2259  31.6468 0008452 337.8257 196.1658  2.00577081  7616
STARLINK-33966          
1 64203U 25117A   26156.84453208  .00024794  00000+0  84550-3 0  9995
2 64203  53.1596 350.0641 0001106  77.9628 282.1497 15.30237292 58057
STARLINK-34331          
1 64204U 25117B   26156.84375778  .00041743  00000+0  12386-2 0  9991
2 64204  53.1605 350.0559 0000819  84.5182 275.5914 15.34429618 58022
STARLINK-34251          
1 64205U 25117C   26156.25122191  .00007156  00000+0  22268-3 0  9997
2 64205  53.1608 352.7554 0001168 105.2175 254.8956 15.34407408 57939
STARLINK-34311          
1 64206U 25117D   26157.00003472  .00071489  00000+0  21097-2 0  9990
2 64206  53.1609 349.4873 0000858  84.5119 337.9481 15.34358934  5679
STARLINK-34324          
1 64207U 25117E   26156.84135947  .00044579  00000+0  15068-2 0  9996
2 64207  53.1603 350.0418 0000454  63.1690 296.9358 15.30230511 56990
STARLINK-34327          
1 64208U 25117F   26156.82659845  .00041962  00000+0  14208-2 0  9991
2 64208  53.1588 349.9511 0000930  58.4374 301.6717 15.30202133 56980
STARLINK-33944          
1 64209U 25117G   26156.11763711  .00032370  00000+0  10998-2 0  9997
2 64209  53.1595 353.3719 0001023  63.7285 296.3821 15.30214844 57947
STARLINK-34310          
1 64210U 25117H   26156.82870963  .00031792  00000+0  10803-2 0  9997
2 64210  53.1599 349.9665 0000981 106.9990 253.1118 15.30219688 58020
STARLINK-34258          
1 64211U 25117J   26156.88242359  .00035762  00000+0  12134-2 0  9996
2 64211  53.1590 349.5853 0001878  37.4904 322.6227 15.30209437 58031
STARLINK-34284          
1 64212U 25117K   26157.14999407  .00028046  00000+0  95485-3 0  9998
2 64212  53.1583 348.4072 0001473 154.3838 205.7236 15.30221139 58079
STARLINK-34332          
1 64213U 25117L   26156.83954864  .00032638  00000+0  97273-3 0  9991
2 64213  53.1604 350.0274 0000845  90.6139 269.4961 15.34405883 58059
STARLINK-34283          
1 64214U 25117M   26156.84327066  .00041933  00000+0  12447-2 0  9998
2 64214  53.1600 348.6371 0001101  95.4385 264.6744 15.34413621 58043
STARLINK-34349          
1 64215U 25117N   26156.84166383  .00035099  00000+0  10462-2 0  9993
2 64215  53.1602 350.0392 0000921 107.7035 252.4069 15.34365794 58024
STARLINK-34296          
1 64216U 25117P   26156.25142992  .00017727  00000+0  60912-3 0  9993
2 64216  53.1594 352.7562 0000774  80.5193 279.5895 15.30204453 57961
STARLINK-34320          
1 64217U 25117Q   26157.00003472  .00071466  00000+0  21090-2 0  9990
2 64217  53.1604 349.3498 0000900  80.3064  51.9115 15.34358497  5827
STARLINK-34300          
1 64218U 25117R   26156.82978446  .00032548  00000+0  11061-2 0  9997
2 64218  53.1591 349.9703 0000730  82.4409 277.6674 15.30205059 58023
STARLINK-34323          
1 64219U 25117S   26156.83506050  .00033472  00000+0  11379-2 0  9996
2 64219  53.1582 350.0010 0001407  73.7763 286.3392 15.30177959 58050
STARLINK-34328          
1 64220U 25117T   26156.84981085  .00039681  00000+0  13442-2 0  9995
2 64220  53.1603 350.0900 0000997  86.2899 273.8216 15.30213875 58027
STARLINK-34326          
1 64221U 25117U   26156.85192554  .00035307  00000+0  11982-2 0  9990
2 64221  53.1612 350.1040 0000929  78.3329 281.7776 15.30210291 58050
STARLINK-34318          
1 64222U 25117V   26156.83533557  .00033526  00000+0  99871-3 0  9996
2 64222  53.1599 350.0005 0000779  55.6004 304.5072 15.34407584 58023
STARLINK-34337          
1 64223U 25117W   26156.26384397  .00033121  00000+0  98693-3 0  9992
2 64223  53.1603 352.8359 0000884  61.4249 298.6842 15.34404326 57933
STARLINK-34304          
1 64224U 25117X   26156.25459690  .00002156  00000+0  84918-4 0  9991
2 64224  53.1599 352.7740 0001531  86.5773 273.5403 15.30192430 57965
STARLINK-34289          
1 64225U 25117Y   26157.25002315 -.00034224  00000+0 -10331-2 0  9990
2 64225  53.1596 348.1935 0001257  70.5734 353.8445 15.33574720  5817
STARLINK-34347          
1 64226U 25117Z   26156.14396240  .00136194  00000+0  44985-2 0  9990
2 64226  53.1594 353.4884 0003169 147.8773 212.2421 15.30401851 57914
